H1 CPF 01  gfz 2022 11 19 13  8232 tandemx   
H2 1003001  6202 36605    2022 11 19 12 59 42 2022 11 24 00 00 42   120 1 1  0 0 0
H9
10 0 59906  65502.000000  0    4881477.878    419138.218  -4850316.953
10 0 59906  65622.000000  0    5481735.428    256108.490  -4172356.745
10 0 59906  65742.000000  0    5983640.717     78978.948  -3421286.867
10 0 59906  65862.000000  0    6378143.794   -107369.518  -2610203.024
10 0 59906  65982.000000  0    6658143.310   -297747.469  -1753286.416
10 0 59906  66102.000000  0    6818627.359   -486783.314   -865555.880
10 0 59906  66222.000000  0    6856774.116   -669055.379     37398.205
10 0 59906  66342.000000  0    6772010.510   -839227.281    939693.339
10 0 59906  66462.000000  0    6566025.605   -992182.897   1825442.427
10 0 59906  66582.000000  0    6242739.206  -1123157.251   2679042.947
10 0 59906  66702.000000  0    5808222.923  -1227859.567   3485461.062
10 0 59906  66822.000000  0    5270579.786  -1302585.460   4230502.212
10 0 59906  66942.000000  0    4639784.355  -1344316.641   4901065.173
10 0 59906  67062.000000  0    3927487.435  -1350803.503   5485373.011
10 0 59906  67182.000000  0    3146791.614  -1320629.761   5973178.277
10 0 59906  67302.000000  0    2312001.484  -1253258.886   6355938.217
10 0 59906  67422.000000  0    1438356.065  -1149060.832   6626958.626
10 0 59906  67542.000000  0     541746.225  -1009318.654   6781505.784
10 0 59906  67662.000000  0    -361576.673   -836214.060   6816883.265
10 0 59906  67782.000000  0   -1255294.832   -632793.400   6732474.688
10 0 59906  67902.000000  0   -2123317.289   -402914.182   6529753.463
10 0 59906  68022.000000  0   -2950068.157   -151172.558   6212258.872
10 0 59906  68142.000000  0   -3720766.508    117186.884   5785539.329
10 0 59906  68262.000000  0   -4421694.076    396377.494   5257061.584
10 0 59906  68382.000000  0   -5040445.144    680191.447   4636085.871
10 0 59906  68502.000000  0   -5566154.219    962132.962   3933508.810
10 0 59906  68622.000000  0   -5989695.401   1235561.479   3161675.014
10 0 59906  68742.000000  0   -6303850.066   1493841.549   2334161.702
10 0 59906  68862.000000  0   -6503439.033   1730495.678   1465538.206
10 0 59906  68982.000000  0   -6585415.840   1939356.966    571104.804
10 0 59906  69102.000000  0   -6548916.733   2114717.588   -333385.008
10 0 59906  69222.000000  0   -6395265.834   2251468.170  -1232010.969
10 0 59906  69342.000000  0   -6127936.497   2345225.396  -2108974.642
10 0 59906  69462.000000  0   -5752470.242   2392445.128  -2948885.248
10 0 59906  69582.000000  0   -5276353.370   2390517.259  -3737035.872
10 0 59906  69702.000000  0   -4708856.709   2337839.572  -4459662.442
10 0 59906  69822.000000  0   -4060843.855   2233870.021  -5104181.380
10 0 59906  69942.000000  0   -3344552.969   2079156.889  -5659401.644
10 0 59906  70062.000000  0   -2573359.004   1875346.635  -6115709.178
10 0 59906  70182.000000  0   -1761519.765   1625169.348  -6465223.474
10 0 59906  70302.000000  0    -923910.187   1332401.957  -6701921.405
10 0 59906  70422.000000  0     -75753.020   1001810.601  -6821729.868
10 0 59906  70542.000000  0     767651.411    639073.842  -6822587.572
10 0 59906  70662.000000  0    1591194.203    250687.324  -6704478.920
10 0 59906  70782.000000  0    2380223.451   -156150.136  -6469433.984
10 0 59906  70902.000000  0    3120799.036   -573666.000  -6121497.490
10 0 59906  71022.000000  0    3799936.273   -993658.032  -5666666.142
10 0 59906  71142.000000  0    4405832.274  -1407650.255  -5112795.429
10 0 59906  71262.000000  0    4928075.247  -1807060.384  -4469476.347
10 0 59906  71382.000000  0    5357830.293  -2183374.746  -3747880.099
10 0 59906  71502.000000  0    5687998.379  -2528326.866  -2960573.480
10 0 59906  71622.000000  0    5913344.644  -2834076.380  -2121305.934
10 0 59906  71742.000000  0    6030591.494  -3093383.923  -1244771.555
10 0 59906  71862.000000  0    6038474.505  -3299777.583   -346351.003
10 0 59906  71982.000000  0    5937758.804  -3447707.057    558163.009
10 0 59906  72102.000000  0    5731215.194  -3532681.289   1452850.113
10 0 59906  72222.000000  0    5423555.351  -3551385.465   2321952.834
10 0 59906  72342.000000  0    5021325.612  -3501772.979   3150162.824
10 0 59906  72462.000000  0    4532765.875  -3383131.582   3922897.647
10 0 59906  72582.000000  0    3967636.647  -3196121.206   4626562.024
10 0 59906  72702.000000  0    3337017.888  -2942784.793   5248790.451
10 0 59906  72822.000000  0    2653083.623  -2626529.131   5778663.702
10 0 59906  72942.000000  0    1928860.863  -2252077.901   6206896.793
10 0 59906  73062.000000  0    1177976.439  -1825398.975   6525996.342
10 0 59906  73182.000000  0     414397.371  -1353606.846   6730385.676
10 0 59906  73302.000000  0    -347830.221   -844841.794   6816496.326
10 0 59906  73422.000000  0   -1094839.018   -308128.316   6782825.685
10 0 59906  73542.000000  0   -1813191.576    246784.721   6629961.357
10 0 59906  73662.000000  0   -2490121.110    809600.709   6360571.620
10 0 59906  73782.000000  0   -3113758.450   1369665.422   5979362.002
10 0 59906  73902.000000  0   -3673341.815   1916167.772   5492998.582
10 0 59906  74022.000000  0   -4159406.822   2438348.557   4909998.213
10 0 59906  74142.000000  0   -4563952.614   2925714.040   4240585.211
10 0 59906  74262.000000  0   -4880580.204   3368248.253   3496515.442
10 0 59906  74382.000000  0   -5104599.543   3756620.807   2690872.065
10 0 59906  74502.000000  0   -5233103.740   4082385.893   1837835.502
10 0 59906  74622.000000  0   -5265008.554   4338167.327    952430.137
10 0 59906  74742.000000  0   -5201053.943   4517823.901     50252.397
10 0 59906  74862.000000  0   -5043768.565   4616590.208   -852811.557
10 0 59906  74982.000000  0   -4797398.806   4631191.680  -1740875.005
10 0 59906  75102.000000  0   -4467801.714   4559928.775  -2598339.795
10 0 59906  75222.000000  0   -4062306.352   4402727.294  -3410177.164
10 0 59906  75342.000000  0   -3589547.175   4161155.589  -4162194.239
10 0 59906  75462.000000  0   -3059275.049   3838408.956  -4841280.424
10 0 59906  75582.000000  0   -2482151.889   3439262.507  -5435629.682
10 0 59906  75702.000000  0   -1869534.208   2969995.469  -5934937.812
10 0 59906  75822.000000  0   -1233247.710   2438286.491  -6330571.790
10 0 59906  75942.000000  0    -585359.164   1853082.934  -6615707.178
10 0 59906  76062.000000  0      62049.461   1224448.793  -6785434.389
10 0 59906  76182.000000  0     697100.917    563392.542  -6836834.143
10 0 59906  76302.000000  0    1308335.598   -118321.861  -6769023.624
10 0 59906  76422.000000  0    1884914.054   -808380.339  -6583169.002
10 0 59906  76542.000000  0    2416804.129  -1494135.178  -6282466.964
10 0 59906  76662.000000  0    2894952.977  -2162830.914  -5872095.864
10 0 59906  76782.000000  0    3311440.607  -2801836.405  -5359137.058
10 0 59906  76902.000000  0    3659614.563  -3398883.173  -4752464.634
10 0 59906  77022.000000  0    3934199.620  -3942301.702  -4062600.867
10 0 59906  77142.000000  0    4131381.519  -4421250.950  -3301544.155
10 0 59906  77262.000000  0    4248864.920  -4825939.171  -2482569.132
10 0 59906  77382.000000  0    4285902.681  -5147830.305  -1619999.665
10 0 59906  77502.000000  0    4243293.040  -5379830.177   -728958.206
10 0 59906  77622.000000  0    4123345.945  -5516446.163    174903.074
10 0 59906  77742.000000  0    3929818.003  -5553916.996   1075683.625
10 0 59906  77862.000000  0    3667818.233  -5490308.754   1957523.098
10 0 59906  77982.000000  0    3343685.269  -5325572.554   2804890.292
10 0 59906  78102.000000  0    2964840.034  -5061565.062   3602863.879
10 0 59906  78222.000000  0    2539618.734  -4702030.107   4337401.308
10 0 59906  78342.000000  0    2077090.230  -4252542.357   4995589.475
10 0 59906  78462.000000  0    1586861.805  -3720414.638   5565872.320
10 0 59906  78582.000000  0    1078878.316  -3114571.425   6038252.180
10 0 59906  78702.000000  0     563218.596  -2445391.478   6404459.889
10 0 59906  78822.000000  0      49894.912  -1724524.641   6658092.559
10 0 59906  78942.000000  0    -451340.582   -964686.227   6794719.147
10 0 59906  79062.000000  0    -931179.878   -179430.950   6811954.238
10 0 59906  79182.000000  0   -1380931.095    617089.514   6709496.866
10 0 59906  79302.000000  0   -1792675.450   1410381.101   6489135.095
10 0 59906  79422.000000  0   -2159406.736   2185870.137   6154716.720
10 0 59906  79542.000000  0   -2475151.393   2929170.835   5712086.255
10 0 59906  79662.000000  0   -2735066.937   3626353.458   5168988.646
10 0 59906  79782.000000  0   -2935518.502   4264208.744   4534940.674
10 0 59906  79902.000000  0   -3074130.879   4830503.963   3821069.404
10 0 59906  80022.000000  0   -3149814.573   5314225.019   3039920.075
10 0 59906  80142.000000  0   -3162764.959   5705798.326   2205235.527
10 0 59906  80262.000000  0   -3114435.006   5997286.772   1331711.905
10 0 59906  80382.000000  0   -3007481.498   6182555.992    434735.438
10 0 59906  80502.000000  0   -2845686.013   6257406.865   -469895.738
10 0 59906  80622.000000  0   -2633853.331   6219669.529  -1366259.256
10 0 59906  80742.000000  0   -2377688.294   6069255.356  -2238600.247
10 0 59906  80862.000000  0   -2083653.322   5808163.273  -3071616.289
10 0 59906  80982.000000  0   -1758813.654   5440446.583  -3850728.115
10 0 59906  81102.000000  0   -1410674.182   4972140.103  -4562335.392
10 0 59906  81222.000000  0   -1047011.573   4411149.297  -5194050.040
10 0 59906  81342.000000  0    -675705.637   3767107.128  -5734905.025
10 0 59906  81462.000000  0    -304572.737   3051199.783  -6175536.644
10 0 59906  81582.000000  0      58794.793   2275964.809  -6508335.754
10 0 59906  81702.000000  0     407179.050   1455068.755  -6727566.896
10 0 59906  81822.000000  0     733875.152    603067.351  -6829458.145
10 0 59906  81942.000000  0    1032816.579   -264849.029  -6812258.848
99
